[
    {
        "Altitude(m)": 705263.8528033807,
        "Argument of Periapsis(deg)": 0.010251109067964361,
        "Eccentricity": 0.0,
        "Inclination(deg)": 45.0,
        "Latitude(deg)": 35.555631573595946,
        "Longitude(deg)": 3.996851025223766,
        "Mean Anomaly(deg)": -235.07460501726726,
        "RAAN(deg)": 329.99032325268763,
        "Satellite Name": "Constellation 1 1459",
        "Satellite Number": 1459,
        "Semi-Major Axis(m)": 7083131.272910544,
        "Time(s)": 171
    },
    {
        "Altitude(m)": 705257.9493509688,
        "Argument of Periapsis(deg)": 0.010311057074209765,
        "Eccentricity": 0.0,
        "Inclination(deg)": 45.0,
        "Latitude(deg)": 35.52531288839256,
        "Longitude(deg)": 4.057340635349268,
        "Mean Anomaly(deg)": -235.01390387701733,
        "RAAN(deg)": 329.99026666352205,
        "Satellite Name": "Constellation 1 1459",
        "Satellite Number": 1459,
        "Semi-Major Axis(m)": 7083131.272910544,
        "Time(s)": 172
    },
    {
        "Altitude(m)": 705252.0437025019,
        "Argument of Periapsis(deg)": 0.010371005080455171,
        "Eccentricity": 0.0,
        "Inclination(deg)": 45.0,
        "Latitude(deg)": 35.49495949000997,
        "Longitude(deg)": 4.1177816763449755,
        "Mean Anomaly(deg)": -234.95320273676742,
        "RAAN(deg)": 329.99021007435647,
        "Satellite Name": "Constellation 1 1459",
        "Satellite Number": 1459,
        "Semi-Major Axis(m)": 7083131.272910544,
        "Time(s)": 173
    },
    {
        "Altitude(m)": 705246.1358954381,
        "Argument of Periapsis(deg)": 0.010430953086700577,
        "Eccentricity": 0.0,
        "Inclination(deg)": 45.0,
        "Latitude(deg)": 35.46457144256052,
        "Longitude(deg)": 4.178174183799906,
        "Mean Anomaly(deg)": -234.89250159651755,
        "RAAN(deg)": 329.9901534851909,
        "Satellite Name": "Constellation 1 1459",
        "Satellite Number": 1459,
        "Semi-Major Axis(m)": 7083131.272910544,
        "Time(s)": 174
    },
    {
        "Altitude(m)": 705240.2259672651,
        "Argument of Periapsis(deg)": 0.010490901092945983,
        "Eccentricity": 0.0,
        "Inclination(deg)": 45.0,
        "Latitude(deg)": 35.434148810095884,
        "Longitude(deg)": 4.23851819352491,
        "Mean Anomaly(deg)": -234.83180045626773,
        "RAAN(deg)": 329.9900968960253,
        "Satellite Name": "Constellation 1 1459",
        "Satellite Number": 1459,
        "Semi-Major Axis(m)": 7083131.272910544,
        "Time(s)": 175
    },
    {
        "Altitude(m)": 705234.3139554886,
        "Argument of Periapsis(deg)": 0.010550849099191389,
        "Eccentricity": 0.0,
        "Inclination(deg)": 45.0,
        "Latitude(deg)": 35.40369165660652,
        "Longitude(deg)": 4.298813741551735,
        "Mean Anomaly(deg)": -234.7710993160177,
        "RAAN(deg)": 329.9900403068598,
        "Satellite Name": "Constellation 1 1459",
        "Satellite Number": 1459,
        "Semi-Major Axis(m)": 7083131.272910544,
        "Time(s)": 176
    },
    {
        "Altitude(m)": 705228.3998976424,
        "Argument of Periapsis(deg)": 0.010610797105436795,
        "Eccentricity": 0.0,
        "Inclination(deg)": 45.0,
        "Latitude(deg)": 35.37320004602213,
        "Longitude(deg)": 4.359060864130872,
        "Mean Anomaly(deg)": -234.7103981757679,
        "RAAN(deg)": 329.9899837176942,
        "Satellite Name": "Constellation 1 1459",
        "Satellite Number": 1459,
        "Semi-Major Axis(m)": 7083131.272910544,
        "Time(s)": 177
    },
    {
        "Altitude(m)": 705222.4838312981,
        "Argument of Periapsis(deg)": 0.0106707451116822,
        "Eccentricity": 0.0,
        "Inclination(deg)": 45.0,
        "Latitude(deg)": 35.34267404221045,
        "Longitude(deg)": 4.419259429634228,
        "Mean Anomaly(deg)": -234.64969703551787,
        "RAAN(deg)": 329.9899271285286,
        "Satellite Name": "Constellation 1 1459",
        "Satellite Number": 1459,
        "Semi-Major Axis(m)": 7083131.272910544,
        "Time(s)": 178
    },
    {
        "Altitude(m)": 705216.5657940345,
        "Argument of Periapsis(deg)": 0.010730693117927606,
        "Eccentricity": 0.0,
        "Inclination(deg)": 45.0,
        "Latitude(deg)": 35.312113708978984,
        "Longitude(deg)": 4.479409810940937,
        "Mean Anomaly(deg)": -234.588995895268,
        "RAAN(deg)": 329.98987053936304,
        "Satellite Name": "Constellation 1 1459",
        "Satellite Number": 1459,
        "Semi-Major Axis(m)": 7083131.272910544,
        "Time(s)": 179
    },
    {
        "Altitude(m)": 705210.6458234686,
        "Argument of Periapsis(deg)": 0.01079064112417301,
        "Eccentricity": 0.0,
        "Inclination(deg)": 45.0,
        "Latitude(deg)": 35.281519110072146,
        "Longitude(deg)": 4.539511876855248,
        "Mean Anomaly(deg)": -234.52829475501818,
        "RAAN(deg)": 329.98981395019746,
        "Satellite Name": "Constellation 1 1459",
        "Satellite Number": 1459,
        "Semi-Major Axis(m)": 7083131.272910544,
        "Time(s)": 180
    },
    {
        "Altitude(m)": 705204.7239572405,
        "Argument of Periapsis(deg)": 0.010850589130418416,
        "Eccentricity": 0.0,
        "Inclination(deg)": 45.0,
        "Latitude(deg)": 35.250890309172874,
        "Longitude(deg)": 4.599565664492486,
        "Mean Anomaly(deg)": -234.46759361476825,
        "RAAN(deg)": 329.9897573610319,
        "Satellite Name": "Constellation 1 1459",
        "Satellite Number": 1459,
        "Semi-Major Axis(m)": 7083131.272910544,
        "Time(s)": 181
    },
    {
        "Altitude(m)": 705198.8002330182,
        "Argument of Periapsis(deg)": 0.01091053713666382,
        "Eccentricity": 0.0,
        "Inclination(deg)": 45.0,
        "Latitude(deg)": 35.22022736990212,
        "Longitude(deg)": 4.6595712111804195,
        "Mean Anomaly(deg)": -234.40689247451837,
        "RAAN(deg)": 329.98970077186635,
        "Satellite Name": "Constellation 1 1459",
        "Satellite Number": 1459,
        "Semi-Major Axis(m)": 7083131.272910544,
        "Time(s)": 182
    },
    {
        "Altitude(m)": 705192.8746884849,
        "Argument of Periapsis(deg)": 0.010970485142909228,
        "Eccentricity": 0.0,
        "Inclination(deg)": 45.0,
        "Latitude(deg)": 35.18953035581827,
        "Longitude(deg)": 4.719528554459184,
        "Mean Anomaly(deg)": -234.34619133426847,
        "RAAN(deg)": 329.9896441827008,
        "Satellite Name": "Constellation 1 1459",
        "Satellite Number": 1459,
        "Semi-Major Axis(m)": 7083131.272910544,
        "Time(s)": 183
    },
    {
        "Altitude(m)": 705186.9473613638,
        "Argument of Periapsis(deg)": 0.011030433149154634,
        "Eccentricity": 0.0,
        "Inclination(deg)": 45.0,
        "Latitude(deg)": 35.15879933041728,
        "Longitude(deg)": 4.779437732078983,
        "Mean Anomaly(deg)": -234.28549019401854,
        "RAAN(deg)": 329.9895875935352,
        "Satellite Name": "Constellation 1 1459",
        "Satellite Number": 1459,
        "Semi-Major Axis(m)": 7083131.272910544,
        "Time(s)": 184
    },
    {
        "Altitude(m)": 705181.0182893904,
        "Argument of Periapsis(deg)": 0.01109038115540004,
        "Eccentricity": 0.0,
        "Inclination(deg)": 45.0,
        "Latitude(deg)": 35.12803435713217,
        "Longitude(deg)": 4.839298613902189,
        "Mean Anomaly(deg)": -234.2247890537687,
        "RAAN(deg)": 329.9895310043696,
        "Satellite Name": "Constellation 1 1459",
        "Satellite Number": 1459,
        "Semi-Major Axis(m)": 7083131.272910544,
        "Time(s)": 185
    },
    {
        "Altitude(m)": 705175.0875103322,
        "Argument of Periapsis(deg)": 0.011150329161645444,
        "Eccentricity": 0.0,
        "Inclination(deg)": 45.0,
        "Latitude(deg)": 35.097235499333806,
        "Longitude(deg)": 4.899111574290531,
        "Mean Anomaly(deg)": -234.1640879135187,
        "RAAN(deg)": 329.98947441520403,
        "Satellite Name": "Constellation 1 1459",
        "Satellite Number": 1459,
        "Semi-Major Axis(m)": 7083131.272910544,
        "Time(s)": 186
    },
    {
        "Altitude(m)": 705169.1550619747,
        "Argument of Periapsis(deg)": 0.01121027716789085,
        "Eccentricity": 0.0,
        "Inclination(deg)": 45.0,
        "Latitude(deg)": 35.066402820329174,
        "Longitude(deg)": 4.9588764835209975,
        "Mean Anomaly(deg)": -234.10338677326885,
        "RAAN(deg)": 329.9894178260385,
        "Satellite Name": "Constellation 1 1459",
        "Satellite Number": 1459,
        "Semi-Major Axis(m)": 7083131.272910544,
        "Time(s)": 187
    },
    {
        "Altitude(m)": 705163.2209821315,
        "Argument of Periapsis(deg)": 0.011270225174136258,
        "Eccentricity": 0.0,
        "Inclination(deg)": 45.0,
        "Latitude(deg)": 35.03553638336216,
        "Longitude(deg)": 5.018593380173466,
        "Mean Anomaly(deg)": -234.04268563301898,
        "RAAN(deg)": 329.9893612368729,
        "Satellite Name": "Constellation 1 1459",
        "Satellite Number": 1459,
        "Semi-Major Axis(m)": 7083131.272910544,
        "Time(s)": 188
    },
    {
        "Altitude(m)": 705157.285308642,
        "Argument of Periapsis(deg)": 0.011330173180381662,
        "Eccentricity": 0.0,
        "Inclination(deg)": 45.0,
        "Latitude(deg)": 35.00463625161335,
        "Longitude(deg)": 5.078262303031596,
        "Mean Anomaly(deg)": -233.9819844927691,
        "RAAN(deg)": 329.9893046477074,
        "Satellite Name": "Constellation 1 1459",
        "Satellite Number": 1459,
        "Semi-Major Axis(m)": 7083131.272910544,
        "Time(s)": 189
    }
]